{"fetched_at":"2026-07-15T17:47:28.978Z","source":"https://celestrak.org/NORAD/elements/gp.php?NAME=RCM&FORMAT=JSON","constellation":"rcm","records":[{"OBJECT_NAME":"RCM-1","OBJECT_ID":"2019-033A","EPOCH":"2026-07-15T04:09:56.549952","CLASSIFICATION_TYPE":"U","MEAN_MOTION":14.92586463,"ECCENTRICITY":0.000152,"INCLINATION":97.7603,"RA_OF_ASC_NODE":203.225,"ARG_OF_PERICENTER":92.7507,"MEAN_ANOMALY":356.5486,"EPHEMERIS_TYPE":0,"NORAD_CAT_ID":44322,"ELEMENT_SET_NO":999,"REV_AT_EPOCH":38625,"BSTAR":0.000053717,"MEAN_MOTION_DOT":0.00000497,"MEAN_MOTION_DDOT":0},{"OBJECT_NAME":"RCM-3","OBJECT_ID":"2019-033B","EPOCH":"2026-07-15T04:18:35.274816","CLASSIFICATION_TYPE":"U","MEAN_MOTION":14.92586405,"ECCENTRICITY":0.0001507,"INCLINATION":97.7602,"RA_OF_ASC_NODE":203.3253,"ARG_OF_PERICENTER":91.1374,"MEAN_ANOMALY":269.0017,"EPHEMERIS_TYPE":0,"NORAD_CAT_ID":44323,"ELEMENT_SET_NO":999,"REV_AT_EPOCH":38627,"BSTAR":0.0000082306,"MEAN_MOTION_DOT":2.9e-7,"MEAN_MOTION_DDOT":0},{"OBJECT_NAME":"RCM-2","OBJECT_ID":"2019-033C","EPOCH":"2026-07-15T04:50:33.892224","CLASSIFICATION_TYPE":"U","MEAN_MOTION":14.92587222,"ECCENTRICITY":0.0001529,"INCLINATION":97.7603,"RA_OF_ASC_NODE":203.2975,"ARG_OF_PERICENTER":90.9508,"MEAN_ANOMALY":269.1887,"EPHEMERIS_TYPE":0,"NORAD_CAT_ID":44324,"ELEMENT_SET_NO":999,"REV_AT_EPOCH":38626,"BSTAR":0.000018469,"MEAN_MOTION_DOT":0.00000134,"MEAN_MOTION_DDOT":0}]}
