RCM-1                   
1 44322U 19033A   26196.17357118  .00000497  00000+0  53717-4 0  9994
2 44322  97.7603 203.2250 0001520  92.7507 356.5486 14.92586463386250
RCM-3                   
1 44323U 19033B   26196.17957494  .00000029  00000+0  82306-5 0  9996
2 44323  97.7602 203.3253 0001507  91.1374 269.0017 14.92586405386270
RCM-2                   
1 44324U 19033C   26196.20178116  .00000134  00000+0  18469-4 0  9992
2 44324  97.7603 203.2975 0001529  90.9508 269.1887 14.92587222386265
